     3.02           N: GNSS NAV DATA    G: GPS              RINEX VERSION / TYPE
Skytraq FW host     Skytraq Corp.       20241228 100724 UTC PGM / RUN BY / DATE
Skytraq FW kernel 1.100.38                                  COMMENT
Stq test version                                            COMMENT
GPSA    .2887e-07   .2980e-07  -.1192e-06   .0000e+00       IONOSPHERIC CORR
GPSB    .1556e+06  -.2130e+06  -.6554e+05   .5243e+06       IONOSPHERIC CORR
GPUT  -.1862645149E-08 -.444089210E-14  61440 1579          TIME SYSTEM CORR
    18                                                      LEAP SECONDS
                                                            END OF HEADER
G27 2005  5 14  5 59 28-3.374787047505e-05 4.547473508865e-13 0.000000000000e+00
     3.700000000000e+01 1.212500000000e+02 4.509473551960e-09-2.964895983476e-01
     6.496906280517e-06 1.309280202258e-02 5.470588803291e-06 5.153689666748e+03
     5.399680000000e+05 9.499490261078e-08-2.796668630348e+00 1.527369022369e-07
     9.593279682719e-01 2.760312500000e+02 8.046154619779e-01-8.313917736616e-09
     2.067943280995e-10 1.000000000000e+00 1.322000000000e+03 0.000000000000e+00
     2.400000000000e+00 0.000000000000e+00 1.862645149231e-09 3.700000000000e+01
     5.370660000000e+05 4.000000000000e+00
G16 2005  5 14  6  0  0-9.219674393535e-05 9.549694368616e-12 0.000000000000e+00
     9.500000000000e+01 5.387500000000e+01 4.265534819504e-09 6.331143161639e-01
     2.991408109665e-06 1.443310745526e-02 9.762123227119e-06 5.153672365189e+03
     5.400000000000e+05-2.086162567139e-07 2.536280315787e+00 1.210719347000e-07
     9.604849243495e-01 1.936875000000e+02 8.631603302295e-01-7.884256982378e-09
    -5.175215568501e-10 1.000000000000e+00 1.322000000000e+03 0.000000000000e+00
     2.400000000000e+00 0.000000000000e+00-1.071020960808e-08 9.500000000000e+01
     5.370660000000e+05 4.000000000000e+00
G08 2005  5 14  6  0  0 4.485514946282e-04 8.412825991400e-12 0.000000000000e+00
     1.060000000000e+02 1.250937500000e+02 4.606977613395e-09-3.752865163955e-01
     6.627291440964e-06 1.024424366187e-02 5.327165126800e-06 5.153734399796e+03
     5.400000000000e+05 1.825392246246e-07-2.824973040609e+00 4.842877388000e-08
     9.502795946623e-01 2.703750000000e+02 3.947684451532e-01-8.317846471692e-09
     1.889364413897e-10 1.000000000000e+00 1.322000000000e+03 0.000000000000e+00
     2.400000000000e+00 0.000000000000e+00 4.656612873077e-09 1.060000000000e+02
     5.370660000000e+05 4.000000000000e+00
G26 2005  5 14  5 59 44-2.554571256042e-05-1.466560206609e-11 0.000000000000e+00
     3.200000000000e+01 3.178125000000e+01 5.041281418177e-09 1.448674400795e+00
     1.743435859680e-06 9.774805395864e-03 9.514391422271e-06 5.153753557205e+03
     5.399840000000e+05-9.685754776001e-08 2.363245976235e+00 6.705522537231e-08
     9.298126626810e-01 1.824375000000e+02 5.996500095098e-01-8.172126116140e-09
    -5.835957376764e-10 1.000000000000e+00 1.322000000000e+03 0.000000000000e+00
     2.400000000000e+00 0.000000000000e+00 6.519258022308e-09 3.200000000000e+01
     5.370660000000e+05 4.000000000000e+00
G03 2005  5 14  6  0  0 6.343289278448e-04 8.071765478235e-12 0.000000000000e+00
     1.020000000000e+02-1.355937500000e+02 3.706225807753e-09 2.598180364710e+00
    -7.042661309242e-06 5.657242028974e-03 8.540228009224e-06 5.153608911514e+03
     5.400000000000e+05-2.235174179077e-08-6.852717300553e-01-1.117587089539e-07
     9.877037455284e-01 2.255312500000e+02 1.145719999220e+00-7.513170096548e-09
    -4.500187450870e-11 1.000000000000e+00 1.322000000000e+03 0.000000000000e+00
     2.400000000000e+00 0.000000000000e+00 1.396983861923e-09 1.020000000000e+02
     5.370660000000e+05 4.000000000000e+00
G31 2005  5 14  6  0  0-2.191034145653e-04 7.958078640513e-13 0.000000000000e+00
     4.100000000000e+01-6.625000000000e+00 4.954492088768e-09 2.091954164574e+00
    -5.941838026047e-07 1.071746670641e-02 5.990266799927e-06 5.153596336365e+03
     5.400000000000e+05-1.341104507446e-07 1.424624336248e+00-1.359730958939e-07
     9.538009086992e-01 2.650937500000e+02 7.900553221411e-01-8.040692069956e-09
    -2.525105180766e-10 1.000000000000e+00 1.322000000000e+03 0.000000000000e+00
     2.400000000000e+00 0.000000000000e+00-1.350417733192e-08 4.100000000000e+01
     5.370660000000e+05 4.000000000000e+00
G32 2005  5 14  6  0  0-5.517490208149e-04 6.480149750132e-12 0.000000000000e+00
     9.600000000000e+01-7.187500000000e+00 4.537331855227e-09 2.996927569605e-01
    -2.924352884293e-07 8.228173013776e-03 8.871778845787e-06 5.153765876770e+03
     5.400000000000e+05-8.568167686462e-08 3.449857759394e-01 1.005828380585e-07
     9.639231329361e-01 2.120937500000e+02-2.116471591949e+00-7.976760835535e-09
     3.925163498815e-10 1.000000000000e+00 1.322000000000e+03 0.000000000000e+00
     2.400000000000e+00 0.000000000000e+00 9.313225746155e-10 9.600000000000e+01
     5.370660000000e+05 4.000000000000e+00
G09 2005  5 14  6  0  0 5.054874345660e-04 1.568878360558e-11 0.000000000000e+00
     1.100000000000e+02-2.153125000000e+01 4.466971781590e-09 1.976591231701e-01
    -1.195818185806e-06 3.209577873349e-03 9.063631296158e-06 5.153789691925e+03
     5.400000000000e+05-1.862645149231e-08 3.295243395886e-01-7.450580596924e-09
     9.606366552869e-01 2.043437500000e+02 2.030377657539e+00-7.822111536628e-09
     4.575190575052e-10 1.000000000000e+00 1.322000000000e+03 0.000000000000e+00
     2.400000000000e+00 0.000000000000e+00 9.313225746155e-10 1.100000000000e+02
     5.371860000000e+05 4.000000000000e+00
G21 2005  5 14  5 59 44 9.879656136036e-05 2.160049916711e-12 0.000000000000e+00
     3.000000000000e+00-2.250000000000e+01 4.850916345851e-09-5.501463231626e-01
    -1.324340701103e-06 2.582170313690e-02 6.984919309616e-07 5.153620628357e+03
     5.399840000000e+05 3.725290298462e-09-1.833051365787e+00-5.066394805908e-07
     9.605863469970e-01 3.660625000000e+02-4.707411091481e-01-8.752150276475e-09
     1.771502361612e-10 1.000000000000e+00 1.322000000000e+03 0.000000000000e+00
     2.400000000000e+00 0.000000000000e+00-1.024454832077e-08 3.000000000000e+00
     5.396460000000e+05 4.000000000000e+00
G27 2005  5 14  8  0  0-3.374461084604e-05 4.547473508865e-13 0.000000000000e+00
     9.100000000000e+01 1.256250000000e+02 4.349824044774e-09 7.582752174807e-01
     6.571412086487e-06 1.309409947135e-02 6.023794412613e-06 5.153692539215e+03
     5.472000000000e+05-1.471489667892e-07-2.796727309455e+00 1.490116119385e-07
     9.593292117523e-01 2.628750000000e+02 8.046879437171e-01-8.193198422458e-09
     3.464430021702e-11 1.000000000000e+00 1.322000000000e+03 0.000000000000e+00
     2.400000000000e+00 0.000000000000e+00 1.862645149231e-09 9.100000000000e+01
     5.400060000000e+05 4.000000000000e+00
G08 2005  5 14  8  0  0 4.486124962568e-04 8.412825991400e-12 0.000000000000e+00
     1.090000000000e+02 1.235937500000e+02 4.540546274835e-09 6.748432175859e-01
     6.552785634994e-06 1.024377124850e-02 5.558133125305e-06 5.153733573914e+03
     5.472000000000e+05 2.048909664154e-08-2.825031921599e+00 2.346932888031e-07
     9.502811424296e-01 2.658750000000e+02 3.947831489428e-01-8.179626428558e-09
     7.964617472572e-11 1.000000000000e+00 1.322000000000e+03 0.000000000000e+00
     2.400000000000e+00 0.000000000000e+00 4.656612873077e-09 1.090000000000e+02
     5.400060000000e+05 4.000000000000e+00
G31 2005  5 14  8  0  0-2.190978266299e-04 7.958078640513e-13 0.000000000000e+00
     6.000000000000e+01-5.656250000000e+00 4.998422490074e-09-3.141037111912e+00
    -3.837049007416e-07 1.071697368752e-02 5.451962351799e-06 5.153597511292e+03
     5.472000000000e+05-2.421438694000e-08 1.424566662165e+00-1.825392246246e-07
     9.537993155814e-01 2.696250000000e+02 7.900922739888e-01-8.001047561460e-09
    -2.346526313668e-10 1.000000000000e+00 1.322000000000e+03 0.000000000000e+00
     2.400000000000e+00 0.000000000000e+00-1.350417733192e-08 6.000000000000e+01
     5.400060000000e+05 4.000000000000e+00
G16 2005  5 14  8  0  0-9.212829172611e-05 9.549694368616e-12 0.000000000000e+00
     9.600000000000e+01 4.234375000000e+01 4.245176828654e-09 1.683168202232e+00
     2.132728695869e-06 1.443380722776e-02 1.028738915920e-05 5.153676042557e+03
     5.472000000000e+05-2.626329660416e-07 2.536223450698e+00-7.264316082001e-08
     9.604811734276e-01 1.862500000000e+02 8.632853804669e-01-7.817468486083e-09
    -5.132356640397e-10 1.000000000000e+00 1.322000000000e+03 0.000000000000e+00
     3.400000000000e+00 0.000000000000e+00-1.071020960808e-08 9.600000000000e+01
     5.400660000000e+05 4.000000000000e+00
G26 2005  5 14  8  0  0-2.565141767263e-05-1.466560206609e-11 0.000000000000e+00
     6.100000000000e+01 2.334375000000e+01 4.973421448680e-09 2.501033548783e+00
     1.125037670135e-06 9.774604113772e-03 9.426847100258e-06 5.153755546570e+03
     5.472000000000e+05-8.009374141693e-08 2.363186975286e+00-1.043081283569e-07
     9.298092496931e-01 1.825937500000e+02 5.997595206314e-01-8.026405760588e-09
    -5.196645032553e-10 1.000000000000e+00 1.322000000000e+03 0.000000000000e+00
     2.400000000000e+00 0.000000000000e+00 6.519258022308e-09 6.100000000000e+01
     5.400660000000e+05 4.000000000000e+00
G09 2005  5 14  8  0  0 5.056001245975e-04 1.568878360558e-11 0.000000000000e+00
     1.110000000000e+02-1.790625000000e+01 4.504116185947e-09 1.247904862166e+00
    -1.085922122002e-06 3.209052723832e-03 9.108334779739e-06 5.153788400650e+03
     5.472000000000e+05 7.450580596924e-09 3.294680508896e-01-3.725290298462e-08
     9.606400989960e-01 2.010625000000e+02 2.030242126957e+00-7.791038813753e-09
     4.639478967207e-10 1.000000000000e+00 1.322000000000e+03 0.000000000000e+00
     2.400000000000e+00 0.000000000000e+00 9.313225746155e-10 1.110000000000e+02
     5.402760000000e+05 4.000000000000e+00
G21 2005  5 14  7 59 44 9.881192818284e-05 2.160049916711e-12 0.000000000000e+00
     4.000000000000e+00-1.578125000000e+01 4.947348934084e-09 5.000567439763e-01
    -1.138076186180e-06 2.582102839369e-02 4.675239324570e-07 5.153619287491e+03
     5.471840000000e+05 3.781169652939e-07-1.833114404390e+00-3.464519977569e-07
     9.605869131463e-01 3.676562500000e+02-4.707273474778e-01-8.796080677781e-09
     5.214502919263e-11 1.000000000000e+00 1.322000000000e+03 0.000000000000e+00
     2.400000000000e+00 0.000000000000e+00-1.024454832077e-08 4.000000000000e+00
     5.402760000000e+05 4.000000000000e+00
